NORAD_CAT_ID,OBJECT_NAME,OBJECT_TYPE,EPOCH,MEAN_MOTION,ECCENTRICITY,INCLINATION,RA_OF_ASC_NODE,ARG_OF_PERICENTER,MEAN_ANOMALY,BSTAR,MEAN_MOTION_DOT,MEAN_MOTION_DDOT,TLE_LINE0,TLE_LINE1,TLE_LINE2,SEMIMAJOR_AXIS,PERIOD,APOGEE,PERIGEE,DECAYED
55314.0,STARLINK-5305,PAYLOAD,2024-01-20 14:52:18,14.98324725,0.0002834,70.0015,168.8247,244.0206,116.0661,2.1713e-05,1.66e-06,0.0,0 STARLINK-5305,1 55314U 23010AX  24020.61966378  .00000166  00000-0  21713-4 0  9999,2 55314  70.0015 168.8247 0002834 244.0206 116.0661 14.98324725 57945,6950.209,96.107,574.044,570.105,0.0
55314.0,STARLINK-5305,PAYLOAD,2024-01-20 19:40:43,14.98326059,0.0002744,70.0012,168.3201,254.4111,105.6746,1.7161e-06,-7.2e-07,0.0,0 STARLINK-5305,1 55314U 23010AX  24020.81994458 -.00000072  00000-0  17161-5 0  9991,2 55314  70.0012 168.3201 0002744 254.4111 105.6746 14.98326059 57970,6950.205,96.107,573.977,570.163,0.0
55314.0,STARLINK-5305,PAYLOAD,2024-01-21 13:18:11,14.98331913,0.0002934,70.0016,166.4708,268.0751,92.0072,1.3459e-05,6.8e-07,0.0,0 STARLINK-5305,1 55314U 23010AX  24021.55430113  .00000068  00000-0  13459-4 0  9995,2 55314  70.0016 166.4708 0002934 268.0751  92.0072 14.98331913 56893,6950.187,96.107,574.091,570.013,0.0
55314.0,STARLINK-5305,PAYLOAD,2024-01-21 19:42:43,14.98339393,0.000337,70.0009,165.7949,266.8738,93.2036,9.2177e-05,1.007e-05,0.0,0 STARLINK-5305,1 55314U 23010AX  24021.82133181  .00001007  00000-0  92177-4 0  9998,2 55314  70.0009 165.7949 0003370 266.8738  93.2036 14.98339393 56938,6950.164,96.106,574.371,569.687,0.0
55314.0,STARLINK-5305,PAYLOAD,2024-01-22 11:44:04,14.9832385,0.0003388,70.0006,164.1125,276.4959,83.5814,1.5481e-05,9.2e-07,0.0,0 STARLINK-5305,1 55314U 23010AX  24022.48894372  .00000092  00000-0  15481-4 0  9993,2 55314  70.0006 164.1125 0003388 276.4959  83.5814 14.98323850 57034,6950.212,96.107,574.432,569.722,0.0
55314.0,STARLINK-5305,PAYLOAD,2024-01-22 18:08:36,14.98324848,0.0003329,70.0015,163.4395,279.6296,80.4487,3.8732e-05,3.69e-06,0.0,0 STARLINK-5305,1 55314U 23010AX  24022.75598311  .00000369  00000-0  38732-4 0  9998,2 55314  70.0015 163.4395 0003329 279.6296  80.4487 14.98324848 58265,6950.209,96.107,574.388,569.76,0.0
55314.0,STARLINK-5305,PAYLOAD,2024-01-23 11:46:05,14.98328756,0.0002841,70.0007,161.5886,253.3826,106.7022,5.099e-05,5.15e-06,0.0,0 STARLINK-5305,1 55314U 23010AX  24023.49033832  .00000515  00000-0  50990-4 0  9995,2 55314  70.0007 161.5886 0002841 253.3826 106.7022 14.98328756 57185,6950.197,96.107,574.036,570.087,0.0
55314.0,STARLINK-5305,PAYLOAD,2024-01-23 18:10:37,14.983326,0.0002787,70.0011,160.9161,252.2954,107.7901,8.2922e-05,8.97e-06,0.0,0 STARLINK-5305,1 55314U 23010AX  24023.75737486  .00000897  00000-0  82922-4 0  9993,2 55314  70.0011 160.9161 0002787 252.2954 107.7901 14.98332600 58415,6950.185,96.107,573.987,570.113,0.0
55314.0,STARLINK-5305,PAYLOAD,2024-01-24 11:48:06,14.98321098,0.0002768,70.0014,159.0643,261.3658,98.7187,-3.8628e-05,-5.54e-06,0.0,0 STARLINK-5305,1 55314U 23010AX  24024.49174560 -.00000554  00000-0 -38628-4 0  9999,2 55314  70.0014 159.0643 0002768 261.3658  98.7187 14.98321098 57337,6950.22,96.108,574.009,570.162,0.0
55314.0,STARLINK-5305,PAYLOAD,2024-01-24 13:24:14,14.98321059,0.0002771,70.0014,158.896,261.7259,98.3586,-3.8643e-05,-5.54e-06,0.0,0 STARLINK-5305,1 55314U 23010AX  24024.55850597 -.00000554  00000-0 -38643-4 0  9994,2 55314  70.0014 158.8960 0002771 261.7259  98.3586 14.98321059 58530,6950.221,96.108,574.011,570.16,0.0
55314.0,STARLINK-5305,PAYLOAD,2024-01-24 18:12:39,14.98322357,0.0002777,70.0012,158.3908,261.6816,98.4028,-2.4507e-05,-3.85e-06,0.0,0 STARLINK-5305,1 55314U 23010AX  24024.75878562 -.00000385  00000-0 -24507-4 0  9994,2 55314  70.0012 158.3908 0002777 261.6816  98.4028 14.98322357 58566,6950.217,96.107,574.012,570.151,0.0
55314.0,STARLINK-5305,PAYLOAD,2024-01-25 11:50:07,14.98328261,0.000269,70.0015,156.5404,254.4011,105.6851,-3.9518e-05,-5.64e-06,0.0,0 STARLINK-5305,1 55314U 23010AX  24025.49314378 -.00000564  00000-0 -39518-4 0  9993,2 55314  70.0015 156.5404 0002690 254.4011 105.6851 14.98328261 57486,6950.198,96.107,573.933,570.194,0.0
55314.0,STARLINK-5305,PAYLOAD,2024-01-25 18:14:39,14.98328142,0.0002701,70.0014,155.8669,255.8394,104.2465,-3.6773e-05,-5.32e-06,0.0,0 STARLINK-5305,1 55314U 23010AX  24025.76018422 -.00000532  00000-0 -36773-4 0  9999,2 55314  70.0014 155.8669 0002701 255.8394 104.2465 14.98328142 58713,6950.199,96.107,573.941,570.186,0.0
55314.0,STARLINK-5305,PAYLOAD,2024-01-26 11:52:08,14.9833144,0.0002947,70.0005,154.0141,265.2728,94.8095,0.00010373,1.145e-05,0.0,0 STARLINK-5305,1 55314U 23010AX  24026.49453826  .00001145  00000-0  10373-3 0  9997,2 55314  70.0005 154.0141 0002947 265.2728  94.8095 14.98331440 57635,6950.188,96.107,574.102,570.005,0.0
55314.0,STARLINK-5305,PAYLOAD,2024-01-26 18:16:39,14.98337168,0.0002995,70.0004,153.3402,271.15,88.9316,0.0001621,1.842e-05,0.0,0 STARLINK-5305,1 55314U 23010AX  24026.76157269  .00001842  00000-0  16210-3 0  9999,2 55314  70.0004 153.3402 0002995 271.1500  88.9316 14.98337168 57670,6950.171,96.107,574.117,569.954,0.0
55314.0,STARLINK-5305,PAYLOAD,2024-01-27 13:30:17,14.98324677,0.0002536,70.0014,151.3203,270.9204,89.1665,5.1156e-05,5.17e-06,0.0,0 STARLINK-5305,1 55314U 23010AX  24027.56270366  .00000517  00000-0  51156-4 0  9999,2 55314  70.0014 151.3203 0002536 270.9204  89.1665 14.98324677 57791,6950.209,96.107,573.837,570.312,0.0
55314.0,STARLINK-5305,PAYLOAD,2024-01-27 18:18:41,14.98329115,0.0002225,70.0016,150.815,260.1819,99.9089,3.5755e-05,3.34e-06,0.0,0 STARLINK-5305,1 55314U 23010AX  24027.76298132  .00000334  00000-0  35755-4 0  9996,2 55314  70.0016 150.8150 0002225 260.1819  99.9089 14.98329115 59014,6950.196,96.107,573.607,570.514,0.0
55314.0,STARLINK-5305,PAYLOAD,2024-01-28 13:32:18,14.98327474,0.0002603,70.0011,148.795,269.3486,90.7375,-7.8019e-05,-1.024e-05,0.0,0 STARLINK-5305,1 55314U 23010AX  24028.56410461 -.00001024  00000-0 -78019-4 0  9995,2 55314  70.0011 148.7950 0002603 269.3486  90.7375 14.98327474 59130,6950.201,96.107,573.875,570.257,0.0
55314.0,STARLINK-5305,PAYLOAD,2024-01-28 18:20:42,14.98330088,0.0002612,70.0011,148.2906,267.546,92.54,-7.8159e-05,-1.025e-05,0.0,0 STARLINK-5305,1 55314U 23010AX  24028.76438286 -.00001025  00000-0 -78159-4 0  9998,2 55314  70.0011 148.2906 0002612 267.5460  92.5400 14.98330088 57972,6950.193,96.107,573.873,570.242,0.0
55314.0,STARLINK-5305,PAYLOAD,2024-01-29 11:58:10,14.9833513,0.0002703,70.0008,146.4396,262.7431,97.342,5.3907e-05,5.5e-06,0.0,0 STARLINK-5305,1 55314U 23010AX  24029.49873402  .00000550  00000-0  53907-4 0  9996,2 55314  70.0008 146.4396 0002703 262.7431  97.3420 14.98335130 58088,6950.177,96.107,573.921,570.163,0.0
55314.0,STARLINK-5305,PAYLOAD,2024-01-29 18:22:42,14.98337525,0.0002661,70.0009,145.7664,261.0978,98.988,7.9671e-05,8.58e-06,0.0,0 STARLINK-5305,1 55314U 23010AX  24029.76577069  .00000858  00000-0  79671-4 0  9993,2 55314  70.0009 145.7664 0002661 261.0978  98.9880 14.98337525 59314,6950.17,96.107,573.884,570.185,0.0
55314.0,STARLINK-5305,PAYLOAD,2024-01-30 12:00:12,14.98322551,0.0002506,70.0012,143.9144,250.0425,110.0465,-1.1369e-05,-2.29e-06,0.0,0 STARLINK-5305,1 55314U 23010AX  24030.50014246 -.00000229  00000-0 -11369-4 0  9994,2 55314  70.0012 143.9144 0002506 250.0425 110.0465 14.98322551 58232,6950.216,96.107,573.823,570.339,0.0
55314.0,STARLINK-5305,PAYLOAD,2024-01-30 13:36:20,14.98321566,0.0002524,70.0012,143.7459,249.493,110.5958,-1.9114e-05,-3.21e-06,0.0,0 STARLINK-5305,1 55314U 23010AX  24030.56690348 -.00000321  00000-0 -19114-4 0  9992,2 55314  70.0012 143.7459 0002524 249.4930 110.5958 14.98321566 59432,6950.219,96.108,573.838,570.33,0.0
55314.0,STARLINK-5305,PAYLOAD,2024-01-30 16:48:36,14.98319475,0.0002698,70.001,143.4098,254.6569,105.4292,-5.6126e-05,-7.62e-06,0.0,0 STARLINK-5305,1 55314U 23010AX  24030.70042695 -.00000762  00000-0 -56126-4 0  9997,2 55314  70.0010 143.4098 0002698 254.6569 105.4292 14.98319475 59456,6950.225,96.108,573.966,570.215,0.0
55314.0,STARLINK-5305,PAYLOAD,2024-01-31 12:02:12,14.98332492,0.0003151,70.0001,141.3895,268.9877,91.0921,-4.6305e-05,-6.46e-06,0.0,0 STARLINK-5305,1 55314U 23010AX  24031.50153903 -.00000646  00000-0 -46305-4 0  9990,2 55314  70.0001 141.3895 0003151 268.9877  91.0921 14.98332492 58387,6950.185,96.107,574.24,569.86,0.0
55314.0,STARLINK-5305,PAYLOAD,2024-02-01 12:04:14,14.98323018,0.0002943,70.001,138.867,261.1948,98.8878,6.3698e-05,6.67e-06,0.0,0 STARLINK-5305,1 55314U 23010AX  24032.50294137  .00000667  00000-0  63698-4 0  9991,2 55314  70.0010 138.8670 0002943 261.1948  98.8878 14.98323018 58538,6950.214,96.107,574.125,570.034,0.0
55314.0,STARLINK-5305,PAYLOAD,2024-02-02 10:30:08,14.98315463,0.0002945,70.004,136.5175,219.4446,140.6499,-0.00018668,-2.319e-05,0.0,0 STARLINK-5305,1 55314U 23010AX  24033.43759346 -.00002319  00000-0 -18668-3 0  9996,2 55314  70.0040 136.5175 0002945 219.4446 140.6499 14.98315463 58672,6950.238,96.108,574.15,570.056,0.0
55314.0,STARLINK-5305,PAYLOAD,2024-02-02 13:42:24,14.98313991,0.0002856,70.0038,136.1803,226.052,134.0404,-0.00019437,-2.41e-05,0.0,0 STARLINK-5305,1 55314U 23010AX  24033.57111602 -.00002410  00000-0 -19437-3 0  9995,2 55314  70.0038 136.1803 0002856 226.0520 134.0404 14.98313991 59882,6950.242,96.108,574.092,570.122,0.0
55314.0,STARLINK-5305,PAYLOAD,2024-02-02 16:54:40,14.98317659,0.0003061,70.0006,135.8368,263.9916,96.0894,-0.0002053,-2.541e-05,0.0,0 STARLINK-5305,1 55314U 23010AX  24033.70463713 -.00002541  00000-0 -20530-3 0  9994,2 55314  70.0006 135.8368 0003061 263.9916  96.0894 14.98317659 59905,6950.231,96.108,574.224,569.969,0.0
55314.0,STARLINK-5305,PAYLOAD,2024-02-03 13:44:25,14.98322902,0.0003625,69.9998,133.6474,277.7809,82.2939,2.9701e-05,2.61e-06,0.0,0 STARLINK-5305,1 55314U 23010AX  24034.57251258  .00000261  00000-0  29701-4 0  9994,2 55314  69.9998 133.6474 0003625 277.7809  82.2939 14.98322902 60036,6950.215,96.107,574.599,569.56,0.0
